SL-3 R/B                
1 13403U 82079B   26020.22561849  .00008184  00000+0  33307-3 0  9993
2 13403  81.1449 250.2809 0024959 332.6046  27.3869 15.24088000370316
SL-14 R/B               
1 13553U 82092B   26020.20288119  .00000765  00000+0  83112-4 0  9995
2 13553  82.5676 186.7378 0021826 101.3345  71.2033 14.86600616321728
SL-3 R/B                
1 13819U 83010B   26020.20176579  .00023940  00000+0  51050-3 0  9992
2 13819  81.1021  61.6265 0016508 211.5383 148.4872 15.44615473350457
SL-3 R/B                
1 14208U 83075B   26020.27409953  .00018102  00000+0  49649-3 0  9993
2 14208  97.6114  23.0794 0023880  46.6387 313.6841 15.37044376322716
COSMOS 1536             
1 14699U 84013A   26019.85309155  .00008191  00000+0  34517-3 0  9990
2 14699  82.5471 156.3525 0015758  94.6524 265.6513 15.23063965265181
SL-14 R/B               
1 14820U 84027B   26020.14202039  .00000614  00000+0  67377-4 0  9991
2 14820  82.5427 290.5479 0019090 130.9024 229.3849 14.85920156240429
SL-8 R/B                
1 15483U 85006B   26020.30838064  .00000448  00000+0  15737-3 0  9993
2 15483  74.0469 350.1692 0019801 276.2266 189.7357 14.37750369147073
SL-12 R/B(2)            
1 15772U 85042D   26020.24757324  .00000208  00000+0  11490-3 0  9992
2 15772  71.1066 190.0683 0036115 204.4233 328.6165 14.21964156107509
SL-14 R/B               
1 15945U 85069B   26020.20885081  .00000657  00000+0  71610-4 0  9990
2 15945  82.5248  70.5338 0018681 357.9040   2.2095 14.86370547165637
SL-16 R/B               
1 16182U 85097B   26019.98943020 -.00000217  00000+0 -84808-4 0  9993
2 16182  71.0009 243.0788 0008918 317.0174 145.7424 14.16591203 80331
SL-14 R/B               
1 16496U 86006B   26020.26577278  .00001048  00000+0  10853-3 0  9992
2 16496  82.5289 305.3060 0078207  73.5227 287.4565 14.86730546142018
COSMOS 1743             
1 16719U 86034A   26020.30425715  .00057433  00000+0  85790-3 0  9995
2 16719  82.5361 124.4610 0005393 110.4946 249.6887 15.54790506172729
