CCSDS_OMM_VERS = 2.0
CREATION_DATE  = 
ORIGINATOR     = 

OBJECT_NAME    = SL-3 R/B
OBJECT_ID      = 1982-079B
CENTER_NAME    = EARTH
REF_FRAME      = TEME
TIME_SYSTEM    = UTC
MEAN_ELEMENT_THEORY = SGP/SGP4

EPOCH          = 2026-01-20T05:24:53.437536
MEAN_MOTION    = 15.24088000
ECCENTRICITY   = .0024959
INCLINATION    = 81.1449
RA_OF_ASC_NODE = 250.2809
ARG_OF_PERICENTER = 332.6046
MEAN_ANOMALY   = 27.3869

EPHEMERIS_TYPE = 0
CLASSIFICATION_TYPE = U
NORAD_CAT_ID   = 13403
ELEMENT_SET_NO = 999
REV_AT_EPOCH   = 37031
BSTAR          = .33307079E-3
MEAN_MOTION_DOT = .8184E-4
MEAN_MOTION_DDOT = 0

CCSDS_OMM_VERS = 2.0
CREATION_DATE  = 
ORIGINATOR     = 

OBJECT_NAME    = SL-14 R/B
OBJECT_ID      = 1982-092B
CENTER_NAME    = EARTH
REF_FRAME      = TEME
TIME_SYSTEM    = UTC
MEAN_ELEMENT_THEORY = SGP/SGP4

EPOCH          = 2026-01-20T04:52:08.934816
MEAN_MOTION    = 14.86600616
ECCENTRICITY   = .00218263
INCLINATION    = 82.5676
RA_OF_ASC_NODE = 186.7378
ARG_OF_PERICENTER = 101.3345
MEAN_ANOMALY   = 71.2033

EPHEMERIS_TYPE = 0
CLASSIFICATION_TYPE = U
NORAD_CAT_ID   = 13553
ELEMENT_SET_NO = 999
REV_AT_EPOCH   = 32172
BSTAR          = .83111771E-4
MEAN_MOTION_DOT = .765E-5
MEAN_MOTION_DDOT = 0

CCSDS_OMM_VERS = 2.0
CREATION_DATE  = 
ORIGINATOR     = 

OBJECT_NAME    = SL-3 R/B
OBJECT_ID      = 1983-010B
CENTER_NAME    = EARTH
REF_FRAME      = TEME
TIME_SYSTEM    = UTC
MEAN_ELEMENT_THEORY = SGP/SGP4

EPOCH          = 2026-01-20T04:50:32.564256
MEAN_MOTION    = 15.44615473
ECCENTRICITY   = .00165089
INCLINATION    = 81.1021
RA_OF_ASC_NODE = 61.6265
ARG_OF_PERICENTER = 211.5383
MEAN_ANOMALY   = 148.4872

EPHEMERIS_TYPE = 0
CLASSIFICATION_TYPE = U
NORAD_CAT_ID   = 13819
ELEMENT_SET_NO = 999
REV_AT_EPOCH   = 35045
BSTAR          = .5104956E-3
MEAN_MOTION_DOT = .2394E-3
MEAN_MOTION_DDOT = 0

CCSDS_OMM_VERS = 2.0
CREATION_DATE  = 
ORIGINATOR     = 

OBJECT_NAME    = SL-3 R/B
OBJECT_ID      = 1983-075B
CENTER_NAME    = EARTH
REF_FRAME      = TEME
TIME_SYSTEM    = UTC
MEAN_ELEMENT_THEORY = SGP/SGP4

EPOCH          = 2026-01-20T06:34:42.199392
MEAN_MOTION    = 15.37044376
ECCENTRICITY   = .00238804
INCLINATION    = 97.6114
RA_OF_ASC_NODE = 23.0794
ARG_OF_PERICENTER = 46.6387
MEAN_ANOMALY   = 313.6841

EPHEMERIS_TYPE = 0
CLASSIFICATION_TYPE = U
NORAD_CAT_ID   = 14208
ELEMENT_SET_NO = 999
REV_AT_EPOCH   = 32271
BSTAR          = .49649008E-3
MEAN_MOTION_DOT = .18102E-3
MEAN_MOTION_DDOT = 0

CCSDS_OMM_VERS = 2.0
CREATION_DATE  = 
ORIGINATOR     = 

OBJECT_NAME    = COSMOS 1536
OBJECT_ID      = 1984-013A
CENTER_NAME    = EARTH
REF_FRAME      = TEME
TIME_SYSTEM    = UTC
MEAN_ELEMENT_THEORY = SGP/SGP4

EPOCH          = 2026-01-19T20:28:27.109920
MEAN_MOTION    = 15.23063965
ECCENTRICITY   = .00157583
INCLINATION    = 82.5471
RA_OF_ASC_NODE = 156.3525
ARG_OF_PERICENTER = 94.6524
MEAN_ANOMALY   = 265.6513

EPHEMERIS_TYPE = 0
CLASSIFICATION_TYPE = U
NORAD_CAT_ID   = 14699
ELEMENT_SET_NO = 999
REV_AT_EPOCH   = 26518
BSTAR          = .34517317E-3
MEAN_MOTION_DOT = .8191E-4
MEAN_MOTION_DDOT = 0

CCSDS_OMM_VERS = 2.0
CREATION_DATE  = 
ORIGINATOR     = 

OBJECT_NAME    = SL-14 R/B
OBJECT_ID      = 1984-027B
CENTER_NAME    = EARTH
REF_FRAME      = TEME
TIME_SYSTEM    = UTC
MEAN_ELEMENT_THEORY = SGP/SGP4

EPOCH          = 2026-01-20T03:24:30.561696
MEAN_MOTION    = 14.85920156
ECCENTRICITY   = .00190907
INCLINATION    = 82.5427
RA_OF_ASC_NODE = 290.5479
ARG_OF_PERICENTER = 130.9024
MEAN_ANOMALY   = 229.3849

EPHEMERIS_TYPE = 0
CLASSIFICATION_TYPE = U
NORAD_CAT_ID   = 14820
ELEMENT_SET_NO = 999
REV_AT_EPOCH   = 24042
BSTAR          = .67376826E-4
MEAN_MOTION_DOT = .614E-5
MEAN_MOTION_DDOT = 0

CCSDS_OMM_VERS = 2.0
CREATION_DATE  = 
ORIGINATOR     = 

OBJECT_NAME    = SL-8 R/B
OBJECT_ID      = 1985-006B
CENTER_NAME    = EARTH
REF_FRAME      = TEME
TIME_SYSTEM    = UTC
MEAN_ELEMENT_THEORY = SGP/SGP4

EPOCH          = 2026-01-20T07:24:04.087296
MEAN_MOTION    = 14.37750369
ECCENTRICITY   = .00198011
INCLINATION    = 74.0469
RA_OF_ASC_NODE = 350.1692
ARG_OF_PERICENTER = 276.2266
MEAN_ANOMALY   = 189.7357

EPHEMERIS_TYPE = 0
CLASSIFICATION_TYPE = U
NORAD_CAT_ID   = 15483
ELEMENT_SET_NO = 999
REV_AT_EPOCH   = 14707
BSTAR          = .1573747E-3
MEAN_MOTION_DOT = .448E-5
MEAN_MOTION_DDOT = 0

CCSDS_OMM_VERS = 2.0
CREATION_DATE  = 
ORIGINATOR     = 

OBJECT_NAME    = SL-12 R/B(2)
OBJECT_ID      = 1985-042D
CENTER_NAME    = EARTH
REF_FRAME      = TEME
TIME_SYSTEM    = UTC
MEAN_ELEMENT_THEORY = SGP/SGP4

EPOCH          = 2026-01-20T05:56:30.327936
MEAN_MOTION    = 14.21964156
ECCENTRICITY   = .00361151
INCLINATION    = 71.1066
RA_OF_ASC_NODE = 190.0683
ARG_OF_PERICENTER = 204.4233
MEAN_ANOMALY   = 328.6165

EPHEMERIS_TYPE = 0
CLASSIFICATION_TYPE = U
NORAD_CAT_ID   = 15772
ELEMENT_SET_NO = 999
REV_AT_EPOCH   = 10750
BSTAR          = .11489512E-3
MEAN_MOTION_DOT = .208E-5
MEAN_MOTION_DDOT = 0

CCSDS_OMM_VERS = 2.0
CREATION_DATE  = 
ORIGINATOR     = 

OBJECT_NAME    = SL-14 R/B
OBJECT_ID      = 1985-069B
CENTER_NAME    = EARTH
REF_FRAME      = TEME
TIME_SYSTEM    = UTC
MEAN_ELEMENT_THEORY = SGP/SGP4

EPOCH          = 2026-01-20T05:00:44.709984
MEAN_MOTION    = 14.86370547
ECCENTRICITY   = .00186814
INCLINATION    = 82.5248
RA_OF_ASC_NODE = 70.5338
ARG_OF_PERICENTER = 357.9040
MEAN_ANOMALY   = 2.2095

EPHEMERIS_TYPE = 0
CLASSIFICATION_TYPE = U
NORAD_CAT_ID   = 15945
ELEMENT_SET_NO = 999
REV_AT_EPOCH   = 16563
BSTAR          = .71609903E-4
MEAN_MOTION_DOT = .657E-5
MEAN_MOTION_DDOT = 0

CCSDS_OMM_VERS = 2.0
CREATION_DATE  = 
ORIGINATOR     = 

OBJECT_NAME    = SL-16 R/B
OBJECT_ID      = 1985-097B
CENTER_NAME    = EARTH
REF_FRAME      = TEME
TIME_SYSTEM    = UTC
MEAN_ELEMENT_THEORY = SGP/SGP4

EPOCH          = 2026-01-19T23:44:46.769280
MEAN_MOTION    = 14.16591203
ECCENTRICITY   = .00089181
INCLINATION    = 71.0009
RA_OF_ASC_NODE = 243.0788
ARG_OF_PERICENTER = 317.0174
MEAN_ANOMALY   = 145.7424

EPHEMERIS_TYPE = 0
CLASSIFICATION_TYPE = U
NORAD_CAT_ID   = 16182
ELEMENT_SET_NO = 999
REV_AT_EPOCH   = 8033
BSTAR          = -.84808274E-4
MEAN_MOTION_DOT = -.217E-5
MEAN_MOTION_DDOT = 0

CCSDS_OMM_VERS = 2.0
CREATION_DATE  = 
ORIGINATOR     = 

OBJECT_NAME    = SL-14 R/B
OBJECT_ID      = 1986-006B
CENTER_NAME    = EARTH
REF_FRAME      = TEME
TIME_SYSTEM    = UTC
MEAN_ELEMENT_THEORY = SGP/SGP4

EPOCH          = 2026-01-20T06:22:42.768192
MEAN_MOTION    = 14.86730546
ECCENTRICITY   = .00782071
INCLINATION    = 82.5289
RA_OF_ASC_NODE = 305.3060
ARG_OF_PERICENTER = 73.5227
MEAN_ANOMALY   = 287.4565

EPHEMERIS_TYPE = 0
CLASSIFICATION_TYPE = U
NORAD_CAT_ID   = 16496
ELEMENT_SET_NO = 999
REV_AT_EPOCH   = 14201
BSTAR          = .10852953E-3
MEAN_MOTION_DOT = .1048E-4
MEAN_MOTION_DDOT = 0

CCSDS_OMM_VERS = 2.0
CREATION_DATE  = 
ORIGINATOR     = 

OBJECT_NAME    = COSMOS 1743
OBJECT_ID      = 1986-034A
CENTER_NAME    = EARTH
REF_FRAME      = TEME
TIME_SYSTEM    = UTC
MEAN_ELEMENT_THEORY = SGP/SGP4

EPOCH          = 2026-01-20T07:18:07.817760
MEAN_MOTION    = 15.54790506
ECCENTRICITY   = .00053935
INCLINATION    = 82.5361
RA_OF_ASC_NODE = 124.4610
ARG_OF_PERICENTER = 110.4946
MEAN_ANOMALY   = 249.6887

EPHEMERIS_TYPE = 0
CLASSIFICATION_TYPE = U
NORAD_CAT_ID   = 16719
ELEMENT_SET_NO = 999
REV_AT_EPOCH   = 17272
BSTAR          = .85790458E-3
MEAN_MOTION_DOT = .57433E-3
MEAN_MOTION_DDOT = 0

